ARCSTONE                
1 64540U 25135N   26068.88991918  .00026427  00000+0  94900-3 0  9995
2 64540  97.4495 185.9194 0004120 166.7863 193.3485 15.28638458 39847
STARLINK-36522          
1 67461U 26008S   26068.43783774  .00035412  00000+0  12884-2 0  9994
2 67461  43.0018 206.6580 0002991 301.8818  58.1742 15.27623629  9536
